{"fetched_at":"2026-03-29T16:36:15Z","count":15609,"tles":[{"name":"STARLINK-32277","line1":"1 60376U 24138X   26087.75127492 -.00004360  00000+0 -13508-3 0  9994","line2":"2 60376  53.1611 221.2273 0001200 111.3432 248.7697 15.30217394 93547","category":"Starlink"}]}